[{"OBJECT_NAME":"GRUS-1C","OBJECT_ID":"2021-022B","EPOCH":"2026-03-09T22:02:59.067744","MEAN_MOTION":14.98740486,"ECCENTRICITY":0.00125084,"INCLINATION":97.5524,"RA_OF_ASC_NODE":315.2446,"ARG_OF_PERICENTER":300.8214,"MEAN_ANOMALY":59.1778,"EPHEMERIS_TYPE":0,"CLASSIFICATION_TYPE":"U","NORAD_CAT_ID":47933,"ELEMENT_SET_NO":999,"REV_AT_EPOCH":27103,"BSTAR":0.00015887452,"MEAN_MOTION_DOT":1.857e-5,"MEAN_MOTION_DDOT":0},{"OBJECT_NAME":"TIANPING 3B-02","OBJECT_ID":"2024-189C","EPOCH":"2026-03-09T23:37:53.455008","MEAN_MOTION":15.00973029,"ECCENTRICITY":0.00020237,"INCLINATION":97.5355,"RA_OF_ASC_NODE":92.3046,"ARG_OF_PERICENTER":72.7812,"MEAN_ANOMALY":287.3634,"EPHEMERIS_TYPE":0,"CLASSIFICATION_TYPE":"U","NORAD_CAT_ID":61616,"ELEMENT_SET_NO":999,"REV_AT_EPOCH":7556,"BSTAR":0.00030065789,"MEAN_MOTION_DOT":3.778e-5,"MEAN_MOTION_DDOT":0}]
